STARLINK-4406
1 53667U 22105V   26092.60515348  .00023826  00000+0  14522-2 0  9994
2 53667  97.6035 335.0103 0000338 148.0263 212.0987 15.10359369196919
